{
  "norad_id": 62784,
  "name": "STARLINK-33581",
  "history": [
    {
      "epoch": "2026-03-28T16:01:18.696864Z",
      "apogee_km": 475.67564866773955,
      "perigee_km": 474.71892320142433,
      "latitude_deg": -1.8125707567024093e-05,
      "longitude_deg": 168.10675264131118,
      "height_km": 475.8709050473345,
      "semi_major_axis_km": 6853.334285934582,
      "eccentricity": 6.98e-05,
      "inclination_deg": 53.1612,
      "raan_deg": 234.5194,
      "arg_perigee_deg": 61.88,
      "mean_anomaly_deg": 298.2271,
      "mean_motion_rev_day": 15.30205956
    }
  ]
}